     2.100          NAVIGATION                              RINEX VERSION / TYPE
fic2rin                                 09/14/2017 00:18:56 PGM / RUN BY / DATE
                                                            END OF HEADER
 4 17  9 14  0  0  0.0  .260928645730D-04  .693489710102D-11  .000000000000D+00
     .300000000000D+01 -.542187500000D+02  .457161899771D-08  .241008121223D+01
    -.289268791676D-05  .123392394744D-01  .483728945255D-05  .515366658592D+04
     .345600000000D+06 -.264495611191D-06  .739518937052D+00 -.949949026108D-07
     .957003028640D+00  .284906250000D+03  .438352884071D+00 -.826070123422D-08
    -.639312344211D-10  .100000000000D+01  .196600000000D+04  .000000000000D+00
     .240000000000D+01  .630000000000D+02 -.558793544769D-08  .300000000000D+01
     .338406000000D+06  .400000000000D+01
 5 17  9 14  0  0  0.0 -.295401550829D-04  .136424205266D-11  .000000000000D+00
     .107000000000D+03  .875000000000D+00  .506556814410D-08  .290817545892D+01
     .931322574615D-07  .518873636611D-02  .849552452564D-05  .515355265617D+04
     .345600000000D+06 -.484287738800D-07  .291079511510D+01 -.875443220139D-07
     .947451082055D+00  .210937500000D+03  .578799831028D+00 -.810640909305D-08
     .372515516767D-09  .100000000000D+01  .196600000000D+04  .000000000000D+00
     .240000000000D+01  .000000000000D+00 -.107102096081D-07  .107000000000D+03
     .338406000000D+06  .400000000000D+01
 6 17  9 14  0  0  0.0  .397168099880D-03  .306954461848D-11  .000000000000D+00
     .690000000000D+02 -.759375000000D+02  .415767318378D-08  .105021826832D+00
    -.400282442570D-05  .558577245101D-03  .962615013123D-05  .515375171280D+04
     .345600000000D+06 -.931322574615D-08  .187817151613D+01  .111758708954D-07
     .968067569614D+00  .192562500000D+03 -.108215081051D+01 -.790568644643D-08
     .259653672761D-09  .100000000000D+01  .196600000000D+04  .000000000000D+00
     .240000000000D+01  .000000000000D+00  .465661287308D-08  .690000000000D+02
     .338406000000D+06  .400000000000D+01
 7 17  9 14  0  0  0.0  .306466594338D-03 -.488853402203D-11  .000000000000D+00
     .148000000000D+03  .711250000000D+02  .448161524869D-08 -.646048953595D+00
     .356324017048D-05  .110625319649D-01  .973790884018D-05  .515372571945D+04
     .345600000000D+06  .132247805595D-06 -.124012863627D+01  .150874257088D-06
     .960904038676D+00  .191750000000D+03 -.256150053193D+01 -.812819571483D-08
    -.333585323739D-09  .100000000000D+01  .196600000000D+04  .000000000000D+00
     .240000000000D+01  .630000000000D+02 -.111758708954D-07  .148000000000D+03
     .338406000000D+06  .400000000000D+01
 8 17  9 14  0  0  0.0 -.734091736376D-04 -.136424205266D-11  .000000000000D+00
     .270000000000D+02 -.702500000000D+02  .435018120251D-08  .269573400060D+01
    -.362284481525D-05  .261151650921D-02  .496767461300D-05  .515369141579D+04
     .345600000000D+06 -.558793544769D-08  .822653979206D+00  .484287738800D-07
     .967549879479D+00  .286531250000D+03 -.627075352297D+00 -.820391315448D-08
    -.110361739867D-09  .100000000000D+01  .196600000000D+04  .000000000000D+00
     .240000000000D+01  .000000000000D+00  .558793544769D-08  .270000000000D+02
     .338406000000D+06  .400000000000D+01
 9 17  9 14  0  0  0.0  .442254822701D-03  .625277607469D-11  .000000000000D+00
     .390000000000D+02  .518750000000D+01  .501199448397D-08  .231829013647D+01
     .258907675743D-06  .795806641690D-03  .790134072304D-05  .515377264214D+04
     .345600000000D+06  .428408384323D-07 -.231892958527D+01 -.912696123123D-07
     .953280102548D+00  .220500000000D+03  .189249885596D+01 -.821569935971D-08
    -.314655963827D-09  .100000000000D+01  .196600000000D+04  .000000000000D+00
     .240000000000D+01  .000000000000D+00  .931322574615D-09  .390000000000D+02
     .338406000000D+06  .400000000000D+01
10 17  9 14  0  0  0.0  .640111975372D-04  .977706804406D-11  .000000000000D+00
     .560000000000D+02  .815625000000D+01  .478805658463D-08 -.205591360213D+01
     .283122062683D-06  .274593080394D-02  .805221498013D-05  .515366619301D+04
     .345600000000D+06  .391155481339D-07  .292547073623D+01 -.465661287308D-07
     .960663324283D+00  .225812500000D+03 -.284283983759D+01 -.809819446516D-08
     .349300264044D-09  .100000000000D+01  .196600000000D+04  .000000000000D+00
     .240000000000D+01  .000000000000D+00  .186264514923D-08  .560000000000D+02
     .338406000000D+06  .400000000000D+01
11 17  9 14  0  0  0.0 -.715414062142D-03 -.227373675443D-11  .000000000000D+00
     .101000000000D+03 -.802187500000D+02  .578559813624D-08 -.620936175616D+00
    -.424869358540D-05  .170843114611D-01  .872090458870D-05  .515373357773D+04
     .345600000000D+06 -.221654772758D-06  .147653760520D+01  .108033418655D-06
     .901933278398D+00  .183843750000D+03  .169192278678D+01 -.903930509477D-08
     .211080220910D-09  .100000000000D+01  .196600000000D+04  .000000000000D+00
     .340000000000D+01  .000000000000D+00 -.121071934700D-07  .101000000000D+03
     .338406000000D+06  .400000000000D+01
12 17  9 14  0  0  0.0  .372816342860D-03 -.125055521494D-11  .000000000000D+00
     .650000000000D+02  .575625000000D+02  .394087843912D-08 -.125886430711D+01
     .295788049698D-05  .652830849867D-02  .530108809471D-05  .515372266388D+04
     .345600000000D+06  .150874257088D-06 -.153471811323D+00  .108033418655D-06
     .988821561233D+00  .292656250000D+03  .914905068097D+00 -.795747431789D-08
    -.607168148133D-11  .100000000000D+01  .196600000000D+04  .000000000000D+00
     .240000000000D+01  .000000000000D+00 -.125728547573D-07  .650000000000D+02
     .338406000000D+06  .400000000000D+01
14 17  9 14  0  0  0.0 -.836006365716D-04 -.102318153949D-11  .000000000000D+00
     .107000000000D+03  .190625000000D+01  .470555314803D-08  .186643770037D+01
    -.670552253723D-07  .935145921540D-02  .816397368908D-05  .515369089508D+04
     .345600000000D+06 -.931322574615D-07 -.223124207665D+01 -.189989805222D-06
     .961709999745D+00  .223812500000D+03 -.194912604049D+01 -.800783355841D-08
    -.292512184307D-09  .100000000000D+01  .196600000000D+04  .000000000000D+00
     .240000000000D+01  .000000000000D+00 -.977888703346D-08  .107000000000D+03
     .338406000000D+06  .400000000000D+01
15 17  9 14  0  0  0.0 -.355764292181D-03 -.341060513165D-12  .000000000000D+00
     .570000000000D+02 -.175000000000D+01  .574238205040D-08  .133657094596D+01
     .156462192535D-06  .956739892717D-02  .738352537155D-05  .515360701752D+04
     .345600000000D+06 -.558793544769D-07 -.238326179695D+01  .158324837685D-06
     .928917428499D+00  .222406250000D+03  .601846873589D+00 -.871143429478D-08
    -.308941440080D-09  .100000000000D+01  .196600000000D+04  .000000000000D+00
     .240000000000D+01  .000000000000D+00 -.107102096081D-07  .570000000000D+02
     .338406000000D+06  .400000000000D+01
17 17  9 14  0  0  0.0 -.157299451530D-03  .250111042988D-11  .000000000000D+00
     .970000000000D+02 -.743750000000D+02  .394837875154D-08  .218143660785D+01
    -.391714274883D-05  .118341209600D-01  .490248203278D-05  .515368813705D+04
     .345600000000D+06  .145286321640D-06  .881694592359D+00 -.184401869774D-06
     .980808029540D+00  .293312500000D+03 -.184394857819D+01 -.794033074665D-08
    -.546451333320D-10  .100000000000D+01  .196600000000D+04  .000000000000D+00
     .240000000000D+01  .000000000000D+00 -.111758708954D-07  .970000000000D+02
     .338406000000D+06  .400000000000D+01
18 17  9 14  0  0  0.0  .629490707070D-03  .795807864051D-12  .000000000000D+00
     .102000000000D+03  .884375000000D+01  .545308428571D-08 -.262996098432D+01
     .361353158951D-06  .181268873857D-01  .770948827267D-05  .515362787056D+04
     .345600000000D+06  .292435288429D-06  .287942367953D+01  .875443220139D-07
     .926287387062D+00  .206656250000D+03 -.178203069630D+01 -.821891377932D-08
     .453233164695D-09  .100000000000D+01  .196600000000D+04  .000000000000D+00
     .340000000000D+01  .000000000000D+00 -.111758708954D-07  .102000000000D+03
     .338406000000D+06  .400000000000D+01
20 17  9 14  0  0  0.0  .486519653350D-03  .125055521494D-11  .000000000000D+00
     .940000000000D+02 -.300000000000D+01  .551451541599D-08  .120660394035D+01
    -.145286321640D-06  .452658708673D-02  .827759504318D-05  .515373499870D+04
     .345600000000D+06 -.108033418655D-06  .282825344276D+01 -.124797224998D-06
     .927655110136D+00  .203375000000D+03  .166129572197D+01 -.849749681199D-08
     .395730769489D-09  .100000000000D+01  .196600000000D+04  .000000000000D+00
     .240000000000D+01  .000000000000D+00 -.838190317154D-08  .940000000000D+02
     .338406000000D+06  .400000000000D+01
21 17  9 14  0  0  0.0 -.479540787637D-03  .306954461848D-11  .000000000000D+00
     .740000000000D+02 -.498750000000D+02  .476662712058D-08 -.173109749029D+01
    -.219978392124D-05  .239617490442D-01  .895932316780D-05  .515360936356D+04
     .345600000000D+06  .348314642906D-06  .183944832180D+01  .486150383949D-06
     .940701874386D+00  .188937500000D+03 -.164173020500D+01 -.804497796277D-08
     .224295057075D-09  .100000000000D+01  .196600000000D+04  .000000000000D+00
     .240000000000D+01  .000000000000D+00 -.977888703346D-08  .740000000000D+02
     .338406000000D+06  .400000000000D+01
22 17  9 14  0  0  0.0 -.121008604765D-03 -.126192389871D-10  .000000000000D+00
     .830000000000D+02 -.906250000000D+00  .572952437197D-08  .154043581004D+01
    -.763684511185D-07  .727956427727D-02  .783056020737D-05  .515372331429D+04
     .345600000000D+06 -.409781932831D-07  .287907977675D+01 -.189989805222D-06
     .924370058832D+00  .212062500000D+03 -.167725332308D+01 -.856678541243D-08
     .393944980818D-09  .100000000000D+01  .196600000000D+04  .000000000000D+00
     .240000000000D+01  .000000000000D+00 -.176951289177D-07  .830000000000D+02
     .338406000000D+06  .400000000000D+01
